HERMES-3                
1 63835U 25052BR  26068.93751242  .00020316  00000+0  69958-3 0  9995
2 63835  97.3987 324.6131 0007993 112.9583 247.2502 15.30039785 54863
STARLINK-34180          
1 64081U 25107T   26068.39087050  .00026062  00000+0  95283-3 0  9993
2 64081  42.9963 203.3296 0000261 129.6772 230.4103 15.27594644 46079
